XM-3 (RHYTHM)           
1 28626U 05008A   25169.55801447 -.00000187  00000+0  00000+0 0  9999
2 28626   0.0406 162.0858 0000887 119.7152  99.8085  1.00270958 38973
INMARSAT 4-F1           
1 28628U 05009A   25169.54347792  .00000042  00000+0  00000+0 0  9998
2 28628   4.6961  42.2566 0002285  57.0252 181.5130  1.00270896 74022
DIRECTV 8               
1 28659U 05019A   25169.47071840  .00000013  00000+0  00000+0 0  9991
2 28659   0.0214 346.6431 0002943 112.3620 218.3575  1.00270080 73424
GALAXY 28 (G-28)        
1 28702U 05022A   25169.55749318 -.00000176  00000+0  00000+0 0  9996
2 28702   2.3621  83.5101 0002437  13.3265 282.2026  1.00272481 48334
THAICOM 4               
1 28786U 05028A   25169.06086416 -.00000351  00000+0  00000+0 0  9998
2 28786   0.0185  17.0198 0002583  76.5573 314.3756  1.00270110 48591
ANIK F1R                
1 28868U 05036A   25169.58301954 -.00000064  00000+0  00000+0 0  9993
2 28868   3.3784  81.1445 0003644   6.6274 281.8867  1.00271674 42806
SYRACUSE 3A             
1 28885U 05041B   25169.50806058  .00000141  00000+0  00000+0 0  9990
2 28885   3.7161  80.3990 0002741 359.0533  32.2365  1.00273842 72100
INMARSAT 4-F2           
1 28899U 05044A   25169.57768154 -.00000252  00000+0  00000+0 0  9993
2 28899   4.6230  43.4817 0002143  53.0067 162.0223  1.00270127 71870
METEOSAT-9 (MSG-2)      
1 28912U 05049B   25168.79767116  .00000133  00000+0  00000+0 0  9991
2 28912   8.5280  57.6488 0002333   3.7127 177.7555  1.00272078  3351
EUTELSAT 174A           
1 28924U 05052A   25169.54669082  .00000020  00000+0  00000+0 0  9990
2 28924   3.2960  81.0752 0006371   6.2685 190.4638  1.00271066 48684
ECHOSTAR 10             
1 28935U 06003A   25169.55297541 -.00000043  00000+0  00000+0 0  9993
2 28935   0.0238 314.9930 0001533 117.4790 283.4431  1.00270095 70817
SPAINSAT                
1 28945U 06007A   25169.34219436 -.00000204  00000+0  00000+0 0  9991
2 28945   0.0546 254.0984 0002842 219.8813 246.0540  1.00271073 70565
EUTELSAT HOTBIRD 13E    
1 28946U 06007B   25169.46584083 -.00000003  00000+0  00000+0 0  9995
2 28946   1.1288  90.2456 0005795 194.7194  24.3185  0.98115822 70677
JCSAT-5A                
1 29045U 06010A   25169.58725615 -.00000316  00000+0  00000+0 0  9998
2 29045   0.1683  89.7166 0002070   8.7420 152.0763  1.00273315 70123
ASTRA 1KR               
1 29055U 06012A   25169.57895265  .00000131  00000+0  00000+0 0  9993
2 29055   0.0514 291.8238 0000879 243.5318 319.3437  1.00267163 42075
EWS-G1 (GOES 13)        
1 29155U 06018A   25169.53196669 -.00000098  00000+0  00000+0 0  9991
2 29155   3.5850  80.8938 0060789 266.7242 303.3014  0.98794019 69781
GALAXY 16 (G-16)        
1 29236U 06023A   25169.55549494 -.00000115  00000+0  00000+0 0  9997
2 29236   0.0380 193.1109 0002698 261.8741 273.0219  1.00270641 69328
EUTELSAT HOTBIRD 13B    
1 29270U 06032A   25169.58164594  .00000167  00000+0  00000+0 0  9998
2 29270   0.7204  86.2181 0003941   0.7611  62.5592  1.00271875 43662
JCSAT-3A                
1 29272U 06033A   25169.03768156 -.00000334  00000+0  00000+0 0  9992
2 29272   0.0146  20.1928 0002801  87.1430 300.7578  1.00271308 44089
SYRACUSE 3B             
1 29273U 06033B   25169.57573808  .00000032  00000+0  00000+0 0  9994
2 29273   1.9671  84.7849 0003213 353.5900  39.2266  1.00269916 69033
KOREASAT 5 (MUGUNGWHA 5)
1 29349U 06034A   25169.59750682 -.00000347  00000+0  00000+0 0  9998
2 29349   0.8427  88.3084 0001693  39.9966 106.9291  1.00269423 37670
DIRECTV 9S              
1 29494U 06043A   25169.55506053 -.00000102  00000+0  00000+0 0  9995
2 29494   1.4805  85.4416 0002998   4.2662 275.9503  1.00272024 47734
OPTUS D1                
1 29495U 06043B   25169.59916247 -.00000172  00000+0  00000+0 0  9997
2 29495   2.0953  84.2749 0003762   3.1081 187.4086  1.00272695 68476
BADR-4                  
1 29526U 06051A   25169.58034273  .00000157  00000+0  00000+0 0  9992
2 29526   1.0644  84.9822 0003110 346.0164  71.2510  1.00274074 47623
WILDBLUE-1              
1 29643U 06054A   25169.47295580 -.00000038  00000+0  00000+0 0  9992
2 29643   1.8624  85.2672 0001508   3.8303 236.9372  1.00271893 50141
SKYNET 5A               
1 30794U 07007B   25169.59403161 -.00000260  00000+0  00000+0 0  9996
2 30794   4.3738  78.1749 0003557  14.2139 123.7014  1.00268488 67059
ANIK F3                 
1 31102U 07009A   25169.48017196  .00000011  00000+0  00000+0 0  9992
2 31102   0.2553  88.7675 0002422 358.7639 233.5926  1.00270494 42919
ASTRA 1L                
1 31306U 07016A   25169.57895265  .00000132  00000+0  00000+0 0  9991
2 31306   0.3822  81.4074 0003221   0.2232  53.2552  1.00269255 41345
GALAXY 17 (G-17)        
1 31307U 07016B   25169.55827512 -.00000195  00000+0  00000+0 0  9990
2 31307   2.0500  84.6096 0002407  28.9681 269.4400  1.00271653 66151
ZHONGXING-6B            
1 31800U 07031A   25169.59759370 -.00000347  00000+0  00000+0 0  9994
2 31800   1.4573  86.0942 0001887   6.4164 143.1007  1.00267427 65789
DIRECTV 10              
1 31862U 07032A   25169.37254872 -.00000091  00000+0  00000+0 0  9992
2 31862   0.0409 186.6040 0000636 350.0275 121.5587  1.00269592 41948
OPTUS D2                
1 32252U 07044A   25169.53559132 -.00000093  00000+0  00000+0 0  9996
2 32252   1.1318  86.7475 0002745 354.5324 179.1635  1.00276013 64924
INTELSAT 11 (IS-11)     
1 32253U 07044B   25165.25808887 -.00000172  00000+0  00000+0 0  9994
2 32253   2.6057  83.2701 0003315  59.9438 156.4352  0.99047478 64800
WGS F1 (USA 195)        
1 32258U 07046A   25169.49528916 -.00000256  00000+0  00000+0 0  9996
2 32258   0.0557  94.1285 0000845 119.6624 188.9639  1.00266963 48687
SKYNET 5B               
1 32294U 07056B   25169.50866875  .00000151  00000+0  00000+0 0  9991
2 32294   4.3270  77.8808 0003648   2.8474  34.4825  1.00273726 64556
ASTRA 4A                
1 32299U 07057A   25169.57608560  .00000044  00000+0  00000+0 0  9990
2 32299   0.0317 300.5273 0002912 142.7813  35.9445  1.00271837 48009
HORIZONS-2              
1 32388U 07063B   25169.48912065 -.00000242  00000+0  00000+0 0  9995
2 32388   1.6617  85.2422 0002069  14.6704 269.3458  1.00272380 64166
THURAYA-3               
1 32404U 08001A   25169.59463977 -.00000293  00000+0  00000+0 0  9998
2 32404   5.3934  34.8162 0002137  57.7099 127.1146  1.00269913 63847
THOR 5                  
1 32487U 08006A   25169.57486927  .00000002  00000+0  00000+0 0  9999
2 32487   0.0129 340.0375 0002231 113.3573  19.8594  1.00270015 63675
AMC-14                  
1 32708U 08011A   25168.28100318  .00000077  00000+0  00000+0 0  9997
2 32708  23.5598  24.9081 0041692   5.6463 354.9394  1.00286843 64519
DIRECTV 11              
1 32729U 08013A   25169.41263132 -.00000114  00000+0  00000+0 0  9995
2 32729   0.0134 176.6231 0000309  61.7949  77.8452  1.00269223 41943
ICO G1                  
1 32763U 08016A   25169.55671126 -.00000163  00000+0  00000+0 0  9991
2 32763   5.4476  36.8603 0002401  38.0869 299.6473  1.00272449 62890
VINASAT-1               
1 32767U 08018A   25169.60124267 -.00000317  00000+0  00000+0 0  9993
2 32767   0.0122 331.2884 0001238 129.8292 154.3625  1.00269460 62943
STAR ONE C2             
1 32768U 08018B   25169.49085825 -.00000265  00000+0  00000+0 0  9999
2 32768   0.3129  83.6678 0002545   3.1744 291.8412  1.00271277 63009
AMOS-3                  
1 32794U 08022A   25169.26947475 -.00000024  00000+0  00000+0 0  9999
2 32794   0.0141 175.1173 0000844 293.4764 251.0387  1.00271057 78687
GALAXY 18 (G-18)        
1 32951U 08024A   25169.46754769  .00000037  00000+0  00000+0 0  9993
2 32951   0.0187 321.8486 0003272 135.6720 214.7315  1.00271066 42202
ZHONGXING-9             
1 33051U 08028A   25169.64639933 -.00000236  00000+0  00000+0 0  9996
2 33051   0.0164 301.5036 0004537 169.2777 121.2505  1.00268862 62390
SKYNET 5C               
1 33055U 08030A   25169.42880008 -.00000129  00000+0  00000+0 0  9991
2 33055   2.8538  81.3748 0005038   3.9419 318.1637  1.00271350 62306
TURKSAT 3A              
1 33056U 08030B   25169.58347043  .00000158  00000+0  00000+0 0  9997
2 33056   0.0568  81.4063 0005260   3.8398  73.8532  1.00270441 48711
INTELSAT 25 (IS-25)     
1 33153U 08034A   25169.49746117 -.00000212  00000+0  00000+0 0  9996
2 33153   1.7685  84.9034 0003272  17.1454 312.5505  1.00271713 62043
ECHOSTAR 11             
1 33207U 08035A   25169.33239429 -.00000045  00000+0  00000+0 0  9997
2 33207   0.0654  87.8809 0002564 358.6719 189.9305  1.00271685 47565
SUPERBIRD-C2            
1 33274U 08038A   25169.53228987 -.00000240  00000+0  00000+0 0  9990
2 33274   1.4212  86.0341 0000270  39.6470 116.8972  1.00272356102082
AMC-21                  
1 33275U 08038B   25169.55028211  .00000047  00000+0  00000+0 0  9995
2 33275   2.0058  84.9643 0002778   4.1160 251.1453  1.00271917 61845
INMARSAT 4-F3           
1 33278U 08039A   25169.12733118 -.00000130  00000+0  00000+0 0  9995
2 33278   3.9898  29.9186 0002626  60.5473 123.9797  1.00273558 42890
NIMIQ 4                 
1 33373U 08044A   25169.55888328 -.00000208  00000+0  00000+0 0  9994
2 33373   0.0389  55.1039 0001938  34.8944 296.2720  1.00267649 61333
GALAXY 19 (G-19)        
1 33376U 08045A   25169.44450125 -.00000127  00000+0  00000+0 0  9996
2 33376   0.0194 325.0720 0002904 133.3063 231.5638  1.00270167 61257
ASTRA 1M                
1 33436U 08057A   25169.57895265  .00000132  00000+0  00000+0 0  9993
2 33436   0.0148 341.6090 0005309 137.3433  15.7330  1.00273290 42096
EUTELSAT HOTBIRD 13C    
1 33459U 08065A   25169.42984264 -.00000089  00000+0  00000+0 0  9991
2 33459   2.0128  83.5394 0003390 359.6405 325.9859  1.00271070 43699
EXPRESS-AM44            
1 33595U 09007A   25169.43010330 -.00000078  00000+0  00000+0 0  9992
2 33595   2.5258  82.9316 0004807   6.4939 321.3147  1.00271142 48638
